start=new Date('2021-11-14T00:00:00.000Z').valueOf();
sats=[{"EPOCH":"2021-11-13T20:23:57.876288","MEAN_ANOMALY":"292.2978","CLASSIFICATION_TYPE":"U","TLE_LINE1":"1 46127U 20057L   21317.84997542  .00001716  00000-0  13405-3 0  9997","PERIAPSIS":"546.196","LAUNCH_DATE":"2020-08-18","SEMIMAJOR_AXIS":"6925.347","RCS_SIZE":"LARGE","OBJECT_NAME":"STARLINK-1621","TIME_SYSTEM":"UTC","DECAY_DATE":null,"CENTER_NAME":"EARTH","MEAN_ELEMENT_THEORY":"SGP4","MEAN_MOTION":"15.06400405","COUNTRY_CODE":"US","EPHEMERIS_TYPE":"0","OBJECT_ID":"2020-057L","REV_AT_EPOCH":"6867","BSTAR":"0.00013405000000","MEAN_MOTION_DDOT":"0.0000000000000","NORAD_CAT_ID":"46127","APOAPSIS":"548.228","INCLINATION":"53.0524","OBJECT_TYPE":"PAYLOAD","MEAN_MOTION_DOT":"0.00001716","ARG_OF_PERICENTER":"67.8166","ELEMENT_SET_NO":"999","TLE_LINE2":"2 46127  53.0524 175.3330 0001467  67.8166 292.2978 15.06400405 68676","PERIOD":"95.592","GP_ID":"189711227","ECCENTRICITY":"0.00014670","RA_OF_ASC_NODE":"175.3330","REF_FRAME":"TEME","SITE":"AFETR","FILE":"3214514"},{"BSTAR":"-0.00006682600000","REV_AT_EPOCH":"6895","INCLINATION":"53.0536","APOAPSIS":"548.315","NORAD_CAT_ID":"46128","MEAN_MOTION_DDOT":"0.0000000000000","ECCENTRICITY":"0.00015380","RA_OF_ASC_NODE":"155.5083","REF_FRAME":"TEME","SITE":"AFETR","FILE":"3214514","ARG_OF_PERICENTER":"66.5932","ELEMENT_SET_NO":"999","TLE_LINE2":"2 46128  53.0536 155.5083 0001538  66.5932 293.5219 15.06388216 68959","PERIOD":"95.593","OBJECT_TYPE":"PAYLOAD","MEAN_MOTION_DOT":"-0.00001276","GP_ID":"189709975","PERIAPSIS":"546.185","EPOCH":"2021-11-13T19:28:15.775680","CLASSIFICATION_TYPE":"U","TLE_LINE1":"1 46128U 20057M   21317.81129370 -.00001276  00000-0 -66826-4 0  9990","MEAN_ANOMALY":"293.5219","DECAY_DATE":null,"CENTER_NAME":"EARTH","TIME_SYSTEM":"UTC","OBJECT_ID":"2020-057M","MEAN_ELEMENT_THEORY":"SGP4","COUNTRY_CODE":"US","MEAN_MOTION":"15.06388216","EPHEMERIS_TYPE":"0","LAUNCH_DATE":"2020-08-18","OBJECT_NAME":"STARLINK-1622","SEMIMAJOR_AXIS":"6925.385","RCS_SIZE":"LARGE"},{"TIME_SYSTEM":"UTC","DECAY_DATE":null,"CENTER_NAME":"EARTH","MEAN_ELEMENT_THEORY":"SGP4","EPHEMERIS_TYPE":"0","COUNTRY_CODE":"US","MEAN_MOTION":"15.06389123","OBJECT_ID":"2020-057N","LAUNCH_DATE":"2020-08-18","RCS_SIZE":"LARGE","SEMIMAJOR_AXIS":"6925.382","OBJECT_NAME":"STARLINK-1623","PERIAPSIS":"546.117","EPOCH":"2021-11-13T20:26:38.479200","MEAN_ANOMALY":"282.3918","CLASSIFICATION_TYPE":"U","TLE_LINE1":"1 46129U 20057N   21317.85183425  .00000688  00000-0  65112-4 0  9997","ECCENTRICITY":"0.00016320","RA_OF_ASC_NODE":"155.3254","REF_FRAME":"TEME","SITE":"AFETR","FILE":"3214514","OBJECT_TYPE":"PAYLOAD","MEAN_MOTION_DOT":"0.00000688","ELEMENT_SET_NO":"999","ARG_OF_PERICENTER":"77.7253","PERIOD":"95.593","TLE_LINE2":"2 46129  53.0540 155.3254 0001632  77.7253 282.3918 15.06389123 68969","GP_ID":"189710225","REV_AT_EPOCH":"6896","BSTAR":"0.00006511200000","MEAN_MOTION_DDOT":"0.0000000000000","APOAPSIS":"548.377","NORAD_CAT_ID":"46129","INCLINATION":"53.0540"},{"REV_AT_EPOCH":"7021","BSTAR":"0.00022116000000","MEAN_MOTION_DDOT":"0.0000000000000","NORAD_CAT_ID":"46130","APOAPSIS":"548.305","INCLINATION":"53.0533","RA_OF_ASC_NODE":"155.1714","ECCENTRICITY":"0.00015640","REF_FRAME":"TEME","SITE":"AFETR","FILE":"3214514","MEAN_MOTION_DOT":"0.00003014","OBJECT_TYPE":"PAYLOAD","ELEMENT_SET_NO":"999","ARG_OF_PERICENTER":"73.9890","PERIOD":"95.592","TLE_LINE2":"2 46130  53.0533 155.1714 0001564  73.9890 286.1272 15.06397376 70216","GP_ID":"189710476","PERIAPSIS":"546.138","EPOCH":"2021-11-13T21:14:25.398816","MEAN_ANOMALY":"286.1272","CLASSIFICATION_TYPE":"U","TLE_LINE1":"1 46130U 20057P   21317.88501619  .00003014  00000-0  22116-3 0  9993","TIME_SYSTEM":"UTC","DECAY_DATE":null,"CENTER_NAME":"EARTH","MEAN_ELEMENT_THEORY":"SGP4","EPHEMERIS_TYPE":"0","COUNTRY_CODE":"US","MEAN_MOTION":"15.06397376","OBJECT_ID":"2020-057P","LAUNCH_DATE":"2020-08-18","RCS_SIZE":"LARGE","SEMIMAJOR_AXIS":"6925.357","OBJECT_NAME":"STARLINK-1624"},{"FILE":"3214514","SITE":"AFETR","REF_FRAME":"TEME","RA_OF_ASC_NODE":"175.1195","ECCENTRICITY":"0.00016780","GP_ID":"189710727","PERIOD":"95.592","TLE_LINE2":"2 46131  53.0542 175.1195 0001678  73.4260 286.6913 15.06409397 69946","ARG_OF_PERICENTER":"73.4260","ELEMENT_SET_NO":"999","MEAN_MOTION_DOT":"-0.00000477","OBJECT_TYPE":"PAYLOAD","APOAPSIS":"548.347","NORAD_CAT_ID":"46131","INCLINATION":"53.0542","MEAN_MOTION_DDOT":"0.0000000000000","BSTAR":"-0.00001313500000","REV_AT_EPOCH":"6994","OBJECT_ID":"2020-057Q","COUNTRY_CODE":"US","MEAN_MOTION":"15.06409397","EPHEMERIS_TYPE":"0","MEAN_ELEMENT_THEORY":"SGP4","CENTER_NAME":"EARTH","DECAY_DATE":null,"TIME_SYSTEM":"UTC","OBJECT_NAME":"STARLINK-1625","RCS_SIZE":"LARGE","SEMIMAJOR_AXIS":"6925.320","LAUNCH_DATE":"2020-08-18","PERIAPSIS":"546.023","TLE_LINE1":"1 46131U 20057Q   21317.89789484 -.00000477  00000-0 -13135-4 0  9997","CLASSIFICATION_TYPE":"U","MEAN_ANOMALY":"286.6913","EPOCH":"2021-11-13T21:32:58.114176"},{"MEAN_MOTION_DDOT":"0.0000000000000","APOAPSIS":"548.362","INCLINATION":"53.0541","NORAD_CAT_ID":"46132","REV_AT_EPOCH":"6967","BSTAR":"-0.00001596600000","REF_FRAME":"TEME","SITE":"AFETR","FILE":"3214514","RA_OF_ASC_NODE":"194.9429","ECCENTRICITY":"0.00016410","GP_ID":"189709475","MEAN_MOTION_DOT":"-0.00000519","OBJECT_TYPE":"PAYLOAD","ARG_OF_PERICENTER":"73.3246","ELEMENT_SET_NO":"999","PERIOD":"95.592","TLE_LINE2":"2 46132  53.0541 194.9429 0001641  73.3246 286.7923 15.06396182 69677","PERIAPSIS":"546.089","MEAN_ANOMALY":"286.7923","CLASSIFICATION_TYPE":"U","TLE_LINE1":"1 46132U 20057R   21317.93660755 -.00000519  00000-0 -15966-4 0  9993","EPOCH":"2021-11-13T22:28:42.892320","MEAN_ELEMENT_THEORY":"SGP4","COUNTRY_CODE":"US","EPHEMERIS_TYPE":"0","MEAN_MOTION":"15.06396182","OBJECT_ID":"2020-057R","TIME_SYSTEM":"UTC","DECAY_DATE":null,"CENTER_NAME":"EARTH","SEMIMAJOR_AXIS":"6925.360","RCS_SIZE":"LARGE","OBJECT_NAME":"STARLINK-1630","LAUNCH_DATE":"2020-08-18"},{"MEAN_MOTION_DOT":"-0.00001296","OBJECT_TYPE":"PAYLOAD","PERIOD":"95.593","TLE_LINE2":"2 46133  53.0526 154.9410 0001799  81.1938 278.9255 15.06393193 70229","ARG_OF_PERICENTER":"81.1938","ELEMENT_SET_NO":"999","GP_ID":"189709725","RA_OF_ASC_NODE":"154.9410","ECCENTRICITY":"0.00017990","SITE":"AFETR","FILE":"3214514","REF_FRAME":"TEME","REV_AT_EPOCH":"7022","BSTAR":"-0.00006815400000","MEAN_MOTION_DDOT":"0.0000000000000","NORAD_CAT_ID":"46133","APOAPSIS":"548.480","INCLINATION":"53.0526","LAUNCH_DATE":"2020-08-18","RCS_SIZE":"LARGE","SEMIMAJOR_AXIS":"6925.369","OBJECT_NAME":"STARLINK-1637","TIME_SYSTEM":"UTC","CENTER_NAME":"EARTH","DECAY_DATE":null,"COUNTRY_CODE":"US","MEAN_MOTION":"15.06393193","EPHEMERIS_TYPE":"0","MEAN_ELEMENT_THEORY":"SGP4","OBJECT_ID":"2020-057S","EPOCH":"2021-11-13T22:28:42.917376","MEAN_ANOMALY":"278.9255","TLE_LINE1":"1 46133U 20057S   21317.93660784 -.00001296  00000-0 -68154-4 0  9996","CLASSIFICATION_TYPE":"U","PERIAPSIS":"545.989"},{"TIME_SYSTEM":"UTC","CENTER_NAME":"EARTH","DECAY_DATE":null,"COUNTRY_CODE":"US","EPHEMERIS_TYPE":"0","MEAN_MOTION":"15.06405444","MEAN_ELEMENT_THEORY":"SGP4","OBJECT_ID":"2020-057T","LAUNCH_DATE":"2020-08-18","SEMIMAJOR_AXIS":"6925.332","RCS_SIZE":"LARGE","OBJECT_NAME":"STARLINK-1638","PERIAPSIS":"546.067","EPOCH":"2021-11-13T22:34:00.788160","MEAN_ANOMALY":"282.0006","TLE_LINE1":"1 46134U 20057T   21317.94028690  .00000803  00000-0  72824-4 0  9992","CLASSIFICATION_TYPE":"U","RA_OF_ASC_NODE":"154.9284","ECCENTRICITY":"0.00016320","SITE":"AFETR","FILE":"3214514","REF_FRAME":"TEME","MEAN_MOTION_DOT":"0.00000803","OBJECT_TYPE":"PAYLOAD","PERIOD":"95.592","TLE_LINE2":"2 46134  53.0524 154.9284 0001632  78.1166 282.0006 15.06405444 68974","ARG_OF_PERICENTER":"78.1166","ELEMENT_SET_NO":"999","GP_ID":"189710977","REV_AT_EPOCH":"6897","BSTAR":"0.00007282400000","MEAN_MOTION_DDOT":"0.0000000000000","NORAD_CAT_ID":"46134","APOAPSIS":"548.327","INCLINATION":"53.0524"},{"SITE":"AFETR","FILE":"3214514","REF_FRAME":"TEME","RA_OF_ASC_NODE":"155.1537","ECCENTRICITY":"0.00016390","GP_ID":"189711228","MEAN_MOTION_DOT":"-0.00001081","OBJECT_TYPE":"PAYLOAD","TLE_LINE2":"2 46135  53.0535 155.1537 0001639  78.8955 281.2218 15.06398394 68961","PERIOD":"95.592","ARG_OF_PERICENTER":"78.8955","ELEMENT_SET_NO":"999","MEAN_MOTION_DDOT":"0.0000000000000","APOAPSIS":"548.354","INCLINATION":"53.0535","NORAD_CAT_ID":"46135","REV_AT_EPOCH":"6896","BSTAR":"-0.00005366300000","MEAN_MOTION":"15.06398394","COUNTRY_CODE":"US","EPHEMERIS_TYPE":"0","MEAN_ELEMENT_THEORY":"SGP4","OBJECT_ID":"2020-057U","TIME_SYSTEM":"UTC","CENTER_NAME":"EARTH","DECAY_DATE":null,"RCS_SIZE":"LARGE","SEMIMAJOR_AXIS":"6925.353","OBJECT_NAME":"STARLINK-1639","LAUNCH_DATE":"2020-08-18","PERIAPSIS":"546.083","MEAN_ANOMALY":"281.2218","TLE_LINE1":"1 46135U 20057U   21317.88868846 -.00001081  00000-0 -53663-4 0  9992","CLASSIFICATION_TYPE":"U","EPOCH":"2021-11-13T21:19:42.682944"},{"MEAN_MOTION_DOT":"0.00001856","OBJECT_TYPE":"PAYLOAD","ARG_OF_PERICENTER":"70.2726","ELEMENT_SET_NO":"999","TLE_LINE2":"2 46136  53.0530 184.9419 0001993  70.2726 289.8478 15.06408054 68553","PERIOD":"95.592","GP_ID":"189709976","ECCENTRICITY":"0.00019930","RA_OF_ASC_NODE":"184.9419","REF_FRAME":"TEME","SITE":"AFETR","FILE":"3214514","REV_AT_EPOCH":"6855","BSTAR":"0.00014342000000","MEAN_MOTION_DDOT":"0.0000000000000","APOAPSIS":"548.569","NORAD_CAT_ID":"46136","INCLINATION":"53.0530","LAUNCH_DATE":"2020-08-18","RCS_SIZE":"LARGE","SEMIMAJOR_AXIS":"6925.324","OBJECT_NAME":"STARLINK-1643","TIME_SYSTEM":"UTC","DECAY_DATE":null,"CENTER_NAME":"EARTH","MEAN_ELEMENT_THEORY":"SGP4","EPHEMERIS_TYPE":"0","COUNTRY_CODE":"US","MEAN_MOTION":"15.06408054","OBJECT_ID":"2020-057V","EPOCH":"2021-11-13T22:30:01.960416","MEAN_ANOMALY":"289.8478","CLASSIFICATION_TYPE":"U","TLE_LINE1":"1 46136U 20057V   21317.93752269  .00001856  00000-0  14342-3 0  9998","PERIAPSIS":"545.809"}];
